[{"OBJECT_NAME":"TOMORROW-S1","OBJECT_ID":"2024-149M","EPOCH":"2026-03-09T17:23:34.533600","MEAN_MOTION":15.31198363,"ECCENTRICITY":0.00018188,"INCLINATION":97.3791,"RA_OF_ASC_NODE":149.6044,"ARG_OF_PERICENTER":207.204,"MEAN_ANOMALY":152.9106,"EPHEMERIS_TYPE":0,"CLASSIFICATION_TYPE":"U","NORAD_CAT_ID":60479,"ELEMENT_SET_NO":999,"REV_AT_EPOCH":8686,"BSTAR":0.0002885603,"MEAN_MOTION_DOT":8.62e-5,"MEAN_MOTION_DDOT":0},{"OBJECT_NAME":"STARLINK-34522","OBJECT_ID":"2025-133W","EPOCH":"2026-03-09T09:33:10.885824","MEAN_MOTION":15.30177735,"ECCENTRICITY":0.00021578,"INCLINATION":53.1593,"RA_OF_ASC_NODE":118.157,"ARG_OF_PERICENTER":32.2245,"MEAN_ANOMALY":327.8887,"EPHEMERIS_TYPE":0,"CLASSIFICATION_TYPE":"U","NORAD_CAT_ID":64492,"ELEMENT_SET_NO":999,"REV_AT_EPOCH":4114,"BSTAR":0.0007235871,"MEAN_MOTION_DOT":0.00021118,"MEAN_MOTION_DDOT":0}]
