TOMORROW-S1             
1 60479U 24149M   26068.72470524  .00008620  00000+0  28856-3 0  9996
2 60479  97.3791 149.6044 0001819 207.2040 152.9106 15.31198362 86867
STARLINK-34522          
1 64492U 25133W   26068.39804266  .00021118  00000+0  72359-3 0  9990
2 64492  53.1593 118.1570 0002157  32.2245 327.8887 15.30177735 41141
